{
    "links": {
        "next": "https://api.nasa.gov/neo/rest/v1/neo/browse?page=2&size=20&api_key=DEMO_KEY",
        "prev": "https://api.nasa.gov/neo/rest/v1/neo/browse?page=0&size=20&api_key=DEMO_KEY",
        "self": "https://api.nasa.gov/neo/rest/v1/neo/browse?page=1&size=20&api_key=DEMO_KEY"
    },
    "page": {
        "size": 20,
        "total_elements": 16660,
        "total_pages": 2,
        "number": 1
    },
    "near_earth_objects": [
        {
            "links": {
                "self": "https://api.nasa.gov/neo/rest/v1/neo/3092113?api_key=DEMO_KEY"
            },
            "neo_reference_id": "3092113",
            "name": "(1993 BD3)",
            "nasa_jpl_url": "http://ssd.jpl.nasa.gov/sbdb.cgi?sstr=3092113",
            "absolute_magnitude_h": 26.2,
            "estimated_diameter": {
                "kilometers": {
                    "estimated_diameter_min": 0.0152951935,
                    "estimated_diameter_max": 0.0342010925
                },
                "meters": {
                    "estimated_diameter_min": 15.2951935344,
                    "estimated_diameter_max": 34.201092472
                },
                "miles": {
                    "estimated_diameter_min": 0.0095039897,
                    "estimated_diameter_max": 0.021251567
                },
                "feet": {
                    "estimated_diameter_min": 50.1810827555,
                    "estimated_diameter_max": 112.2083122258
                }
            },
            "is_potentially_hazardous_asteroid": false,
            "close_approach_data": [
                {
                    "close_approach_date": "1993-01-24",
                    "epoch_date_close_approach": 727862400000,
                    "relative_velocity": {
                        "kilometers_per_second": "4.3223460103",
                        "kilometers_per_hour": "15560.4456370884",
                        "miles_per_hour": "9668.6557904453"
                    },
                    "miss_distance": {
                        "astronomical": "0.0375422991",
                        "lunar": "14.6039543152",
                        "kilometers": "5616248",
                        "miles": "3489774.75"
                    },
                    "orbiting_body": "Earth"
                },
                {
                    "close_approach_date": "2072-09-29",
                    "epoch_date_close_approach": 3242358000000,
                    "relative_velocity": {
                        "kilometers_per_second": "11.4811062922",
                        "kilometers_per_hour": "41331.9826520626",
                        "miles_per_hour": "25682.0866651108"
                    },
                    "miss_distance": {
                        "astronomical": "0.0280757978",
                        "lunar": "10.9214849472",
                        "kilometers": "4200079.5",
                        "miles": "2609808.5"
                    },
                    "orbiting_body": "Mars"
                }
            ],
            "orbital_data": {
                "orbit_id": "12",
                "orbit_determination_date": "2017-04-06 09:18:21",
                "orbit_uncertainty": "8",
                "minimum_orbit_intersection": ".0374988",
                "jupiter_tisserand_invariant": "4.220",
                "epoch_osculation": "2449016.5",
                "eccentricity": ".3754149624309116",
                "semi_major_axis": "1.635851582288549",
                "inclination": ".8896105188295931",
                "ascending_node_longitude": "314.0284621236152",
                "orbital_period": "764.2127418550201",
                "perihelion_distance": "1.021728421981146",
                "perihelion_argument": "168.3892874697885",
                "aphelion_distance": "2.249974742595951",
                "perihelion_time": "2449010.103738684718",
                "mean_anomaly": "3.013106099110762",
                "mean_motion": ".4710730144673459",
                "equinox": "J2000"
            }
        },
        {
            "links": {
                "self": "https://api.nasa.gov/neo/rest/v1/neo/3005864?api_key=DEMO_KEY"
            },
            "neo_reference_id": "3005864",
            "name": "(1993 BU3)",
            "nasa_jpl_url": "http://ssd.jpl.nasa.gov/sbdb.cgi?sstr=3005864",
            "absolute_magnitude_h": 21.5,
            "estimated_diameter": {
                "kilometers": {
                    "estimated_diameter_min": 0.1332155667,
                    "estimated_diameter_max": 0.2978790628
                },
                "meters": {
                    "estimated_diameter_min": 133.2155666981,
                    "estimated_diameter_max": 297.8790627982
                },
                "miles": {
                    "estimated_diameter_min": 0.0827762899,
                    "estimated_diameter_max": 0.1850934111
                },
                "feet": {
                    "estimated_diameter_min": 437.0589598459,
                    "estimated_diameter_max": 977.2935443908
                }
            },
            "is_potentially_hazardous_asteroid": false,
            "close_approach_data": [
                {
                    "close_approach_date": "1993-01-04",
                    "epoch_date_close_approach": 726134400000,
                    "relative_velocity": {
                        "kilometers_per_second": "4.3242287684",
                        "kilometers_per_hour": "15567.2235661224",
                        "miles_per_hour": "9672.8673319609"
                    },
                    "miss_distance": {
                        "astronomical": "0.20306256",
                        "lunar": "78.9913406372",
                        "kilometers": "30377728",
                        "miles": "18875844"
                    },
                    "orbiting_body": "Earth"
                }
            ],
            "orbital_data": {
                "orbit_id": "13",
                "orbit_determination_date": "2017-04-06 09:18:21",
                "orbit_uncertainty": "7",
                "minimum_orbit_intersection": ".1986",
                "jupiter_tisserand_invariant": "3.324",
                "epoch_osculation": "2458000.5",
                "eccentricity": ".5128388511826294",
                "semi_major_axis": "2.407270036052233",
                "inclination": "5.288552843313498",
                "ascending_node_longitude": "316.1920682452879",
                "orbital_period": "1364.22386319554",
                "perihelion_distance": "1.172728436276839",
                "perihelion_argument": "144.3080019734037",
                "aphelion_distance": "3.641811635827628",
                "perihelion_time": "2458528.136781020626",
                "mean_anomaly": "220.7638773283949",
                "mean_motion": ".2638863090671503",
                "equinox": "J2000"
            }
        }
    ]
}
